NORAD_CAT_ID,OBJECT_NAME,OBJECT_TYPE,EPOCH,MEAN_MOTION,ECCENTRICITY,INCLINATION,RA_OF_ASC_NODE,ARG_OF_PERICENTER,MEAN_ANOMALY,BSTAR,MEAN_MOTION_DOT,MEAN_MOTION_DDOT,TLE_LINE0,TLE_LINE1,TLE_LINE2,SEMIMAJOR_AXIS,PERIOD,APOGEE,PERIGEE,DECAYED
53153.0,STARLINK-4098,PAYLOAD,2024-07-20 12:14:50,15.08834831,0.0001373,53.2187,324.9693,89.0919,271.023,-4.636e-05,-1.026e-05,0.0,0 STARLINK-4098,1 53153U 22083X   24202.51030388 -.00001026  00000-0 -46360-4 0  9994,2 53153  53.2187 324.9693 0001373  89.0919 271.0230 15.08834831111831,6917.896,95.438,540.711,538.811,0.0
53153.0,STARLINK-4098,PAYLOAD,2024-07-20 15:25:36,15.08837577,0.0001303,53.2191,324.3766,92.73,267.3841,2.7775e-05,1.54e-06,0.0,0 STARLINK-4098,1 53153U 22083X   24202.64278283  .00000154  00000-0  27775-4 0  9994,2 53153  53.2191 324.3766 0001303  92.7300 267.3841 15.08837577111228,6917.888,95.438,540.654,538.851,0.0
53153.0,STARLINK-4098,PAYLOAD,2024-07-21 13:41:01,15.08831233,0.0001502,53.2185,320.2097,84.3992,275.7172,-0.00011965,-2.191e-05,0.0,0 STARLINK-4098,1 53153U 22083X   24203.57015138 -.00002191  00000-0 -11965-3 0  9993,2 53153  53.2185 320.2097 0001502  84.3992 275.7172 15.08831233111366,6917.907,95.438,540.811,538.733,0.0
53153.0,STARLINK-4098,PAYLOAD,2024-07-21 15:16:24,15.08832794,0.0001508,53.2185,319.9117,79.1803,280.9359,-7.769e-05,-1.524e-05,0.0,0 STARLINK-4098,1 53153U 22083X   24203.63639100 -.00001524  00000-0 -77690-4 0  9998,2 53153  53.2185 319.9117 0001508  79.1803 280.9359 15.08832794112003,6917.902,95.438,540.811,538.724,0.0
53153.0,STARLINK-4098,PAYLOAD,2024-07-22 07:10:15,15.08844212,0.0001417,53.2183,316.9388,75.5671,284.5478,0.00036322,5.498e-05,0.0,0 STARLINK-4098,1 53153U 22083X   24204.29878669  .00005498  00000-0  36322-3 0  9994,2 53153  53.2183 316.9388 0001417  75.5671 284.5478 15.08844212112101,6917.868,95.437,540.713,538.752,0.0
53153.0,STARLINK-4098,PAYLOAD,2024-07-23 13:22:35,15.08837024,0.0001121,53.2171,311.2883,87.0436,273.0684,0.00074892,0.0001165,0.0,0 STARLINK-4098,1 53153U 22083X   24205.55735245  .00011650  00000-0  74892-3 0  9997,2 53153  53.2171 311.2883 0001121  87.0436 273.0684 15.08837024112290,6917.889,95.438,540.53,538.979,0.0
53153.0,STARLINK-4098,PAYLOAD,2024-07-25 06:42:37,15.08823965,0.00015,53.2169,303.555,117.0578,243.0568,-0.00011358,-2.094e-05,0.0,0 STARLINK-4098,1 53153U 22083X   24207.27960152 -.00002094  00000-0 -11358-3 0  9997,2 53153  53.2169 303.5550 0001500 117.0578 243.0568 15.08823965111920,6917.929,95.439,540.832,538.757,0.0
53153.0,STARLINK-4098,PAYLOAD,2024-07-25 09:53:22,15.08850751,0.0001272,53.2172,302.9601,80.539,279.5745,0.00015114,2.119e-05,0.0,0 STARLINK-4098,1 53153U 22083X   24207.41206567  .00002119  00000-0  15114-3 0  9996,2 53153  53.2172 302.9601 0001272  80.5390 279.5745 15.08850751112572,6917.848,95.437,540.592,538.833,0.0
53153.0,STARLINK-4098,PAYLOAD,2024-07-25 16:14:55,15.08849997,0.0002092,53.2156,301.7718,110.1337,249.988,0.00016901,2.403e-05,0.0,0 STARLINK-4098,1 53153U 22083X   24207.67702608  .00002403  00000-0  16901-3 0  9992,2 53153  53.2156 301.7718 0002092 110.1337 249.9880 15.08849997111987,6917.85,95.437,541.162,538.268,0.0
53153.0,STARLINK-4098,PAYLOAD,2024-07-26 09:44:10,15.08885675,0.0002095,53.214,298.4955,121.442,238.6777,-0.0001875,-3.275e-05,0.0,0 STARLINK-4098,1 53153U 22083X   24208.40567401 -.00003275  00000-0 -18750-3 0  9998,2 53153  53.2140 298.4955 0002095 121.4420 238.6777 15.08885675112092,6917.741,95.435,541.055,538.157,0.0
53153.0,STARLINK-4098,PAYLOAD,2024-07-26 14:30:18,15.08862553,0.0001733,53.2149,297.605,112.0264,248.0912,8.8674e-05,1.124e-05,0.0,0 STARLINK-4098,1 53153U 22083X   24208.60438518  .00001124  00000-0  88674-4 0  9998,2 53153  53.2149 297.6050 0001733 112.0264 248.0912 15.08862553112757,6917.811,95.436,540.875,538.478,0.0
53153.0,STARLINK-4098,PAYLOAD,2024-07-27 09:34:56,15.0884729,0.0001821,53.2148,294.0378,114.1117,246.0065,-1.9826e-05,-6.04e-06,0.0,0 STARLINK-4098,1 53153U 22083X   24209.39927067 -.00000604  00000-0 -19826-4 0  9994,2 53153  53.2148 294.0378 0001821 114.1117 246.0065 15.08847290112879,6917.858,95.437,540.983,538.463,0.0
53153.0,STARLINK-4098,PAYLOAD,2024-07-28 12:36:29,15.08847574,0.0001386,53.2168,288.9874,101.6872,258.4276,2.7838e-06,-2.44e-06,0.0,0 STARLINK-4098,1 53153U 22083X   24210.52534717 -.00000244  00000-0  27838-5 0  9999,2 53153  53.2168 288.9874 0001386 101.6872 258.4276 15.08847574113045,6917.857,95.437,540.681,538.763,0.0
53153.0,STARLINK-4098,PAYLOAD,2024-07-28 22:08:49,15.08838988,0.0001474,53.2165,287.1985,86.4961,273.62,7.3298e-05,8.79e-06,0.0,0 STARLINK-4098,1 53153U 22083X   24210.92279155  .00000879  00000-0  73298-4 0  9998,2 53153  53.2165 287.1985 0001474  86.4961 273.6200 15.08838988112474,6917.883,95.438,540.768,538.729,0.0
53153.0,STARLINK-4098,PAYLOAD,2024-07-29 14:02:40,15.08840378,0.000169,53.216,284.2261,106.131,253.9868,0.00011166,1.489e-05,0.0,0 STARLINK-4098,1 53153U 22083X   24211.58518984  .00001489  00000-0  11166-3 0  9990,2 53153  53.2160 284.2261 0001690 106.1310 253.9868 15.08840378112570,6917.879,95.438,540.913,538.575,0.0
53153.0,STARLINK-4098,PAYLOAD,2024-07-29 21:59:36,15.0884432,0.0001538,53.2152,282.7394,95.6876,264.4291,-9.7413e-06,-4.43e-06,0.0,0 STARLINK-4098,1 53153U 22083X   24211.91639406 -.00000443  00000-0 -97413-5 0  9992,2 53153  53.2152 282.7394 0001538  95.6876 264.4291 15.08844320112625,6917.867,95.437,540.796,538.668,0.0
53153.0,STARLINK-4098,PAYLOAD,2024-07-30 10:42:41,15.08845243,0.0001305,53.2151,280.3608,83.3026,276.8115,3.4343e-05,2.59e-06,0.0,0 STARLINK-4098,1 53153U 22083X   24212.44631053  .00000259  00000-0  34343-4 0  9996,2 53153  53.2151 280.3608 0001305  83.3026 276.8115 15.08845243113335,6917.864,95.437,540.632,538.827,0.0
53153.0,STARLINK-4098,PAYLOAD,2024-07-30 21:50:23,15.0883956,0.0001303,53.2143,278.2812,84.2654,275.8486,0.00011517,1.545e-05,0.0,0 STARLINK-4098,1 53153U 22083X   24212.90999266  .00001545  00000-0  11517-3 0  9996,2 53153  53.2143 278.2812 0001303  84.2654 275.8486 15.08839560112776,6917.882,95.438,540.648,538.845,0.0
53153.0,STARLINK-4098,PAYLOAD,2024-07-31 10:33:28,15.08835513,0.000174,53.2155,275.897,94.0616,266.0575,3.6633e-05,2.95e-06,0.0,0 STARLINK-4098,1 53153U 22083X   24213.43991876  .00000295  00000-0  36633-4 0  9992,2 53153  53.2155 275.8970 0001740  94.0616 266.0575 15.08835513113483,6917.894,95.438,540.963,538.555,0.0
53153.0,STARLINK-4098,PAYLOAD,2024-07-31 13:44:15,15.08833763,0.0001697,53.2167,275.3009,98.697,261.4214,1.9433e-05,2.1e-07,0.0,0 STARLINK-4098,1 53153U 22083X   24213.57240007  .00000021  00000-0  19433-4 0  9996,2 53153  53.2167 275.3009 0001697  98.6970 261.4214 15.08833763112874,6917.899,95.438,540.938,538.59,0.0
53153.0,STARLINK-4098,PAYLOAD,2024-08-01 10:24:15,15.08842072,0.0001606,53.2166,271.4366,105.4171,254.6998,0.00011086,1.477e-05,0.0,0 STARLINK-4098,1 53153U 22083X   24214.43351359  .00001477  00000-0  11086-3 0  9996,2 53153  53.2166 271.4366 0001606 105.4171 254.6998 15.08842072113008,6917.874,95.437,540.85,538.628,0.0
53153.0,STARLINK-4098,PAYLOAD,2024-08-02 10:15:02,15.08844664,0.0001488,53.2168,266.9795,97.6136,262.5025,0.00012371,1.682e-05,0.0,0 STARLINK-4098,1 53153U 22083X   24215.42711338  .00001682  00000-0  12371-3 0  9999,2 53153  53.2168 266.9795 0001488  97.6136 262.5025 15.08844664113150,6917.866,95.437,540.761,538.702,0.0
53153.0,STARLINK-4098,PAYLOAD,2024-08-02 15:01:11,15.08850923,0.0001378,53.2161,266.0874,94.1633,265.9516,0.00018489,2.657e-05,0.0,0 STARLINK-4098,1 53153U 22083X   24215.62582783  .00002657  00000-0  18489-3 0  9990,2 53153  53.2161 266.0874 0001378  94.1633 265.9516 15.08850923113814,6917.847,95.437,540.665,538.759,0.0
53153.0,STARLINK-4098,PAYLOAD,2024-08-03 10:05:49,15.08844008,0.000136,53.2161,262.5195,95.9216,264.1932,3.7999e-05,3.17e-06,0.0,0 STARLINK-4098,1 53153U 22083X   24216.42071539  .00000317  00000-0  37999-4 0  9990,2 53153  53.2161 262.5195 0001360  95.9216 264.1932 15.08844008113931,6917.868,95.437,540.674,538.792,0.0
53153.0,STARLINK-4098,PAYLOAD,2024-08-03 13:16:35,15.08847266,0.0001351,53.2165,261.9233,94.55,265.5647,6.6197e-05,7.66e-06,0.0,0 STARLINK-4098,1 53153U 22083X   24216.55319217  .00000766  00000-0  66197-4 0  9992,2 53153  53.2165 261.9233 0001351  94.5500 265.5647 15.08847266113322,6917.858,95.437,540.658,538.789,0.0
53153.0,STARLINK-4098,PAYLOAD,2024-08-03 19:38:08,15.08843218,0.0001328,53.2159,260.7324,91.1717,268.9427,4.5574e-05,4.38e-06,0.0,0 STARLINK-4098,1 53153U 22083X   24216.81815509  .00000438  00000-0  45574-4 0  9998,2 53153  53.2159 260.7324 0001328  91.1717 268.9427 15.08843218113360,6917.871,95.437,540.654,538.817,0.0
53153.0,STARLINK-4098,PAYLOAD,2024-08-04 03:35:04,15.08841613,0.0001556,53.2161,259.248,80.8222,279.2946,-2.6691e-05,-7.13e-06,0.0,0 STARLINK-4098,1 53153U 22083X   24217.14935934 -.00000713  00000-0 -26691-4 0  9997,2 53153  53.2161 259.2480 0001556  80.8222 279.2946 15.08841613114042,6917.875,95.437,540.817,538.664,0.0
53153.0,STARLINK-4098,PAYLOAD,2024-08-04 11:32:00,15.08841854,0.0001319,53.2166,257.7628,91.6736,268.4407,-1.8683e-05,-5.85e-06,0.0,0 STARLINK-4098,1 53153U 22083X   24217.48055900 -.00000585  00000-0 -18683-4 0  9999,2 53153  53.2166 257.7628 0001319  91.6736 268.4407 15.08841854113465,6917.875,95.437,540.652,538.827,0.0
53153.0,STARLINK-4098,PAYLOAD,2024-08-05 19:19:42,15.08840755,0.0001235,53.2148,251.8113,89.3643,270.749,6.9759e-05,8.23e-06,0.0,0 STARLINK-4098,1 53153U 22083X   24218.80535643  .00000823  00000-0  69759-4 0  9996,2 53153  53.2148 251.8113 0001235  89.3643 270.7490 15.08840755114296,6917.878,95.438,540.597,538.889,0.0
53153.0,STARLINK-4098,PAYLOAD,2024-08-06 01:41:15,15.08835648,0.0001633,53.2151,250.6272,93.8763,266.2415,0.00010538,1.389e-05,0.0,0 STARLINK-4098,1 53153U 22083X   24219.07032303  .00001389  00000-0  10538-3 0  9999,2 53153  53.2151 250.6272 0001633  93.8763 266.2415 15.08835648114335,6917.894,95.438,540.888,538.629,0.0
